{"type": "FeatureCollection", "features": [ {"type": "Feature", "properties": {"norad_id": 31989, "name": "FENGYUN 1C DEB", "group": "fengyun-1c-debris", "lat": 45.79595579431662, "lon": 35.53596616461165, "alt_km": 925.6378943057507, "timestamp": "2025-12-09T23:33:24.140224+00:00", "meta": {"OBJECT_NAME": "FENGYUN 1C DEB", "OBJECT_ID": "1999-025CPS", "EPOCH": "2025-12-09T02:47:59.628768", "MEAN_MOTION": 13.93579054, "ECCENTRICITY": 0.01152947, "INCLINATION": 99.2138, "RA_OF_ASC_NODE": 44.2812, "ARG_OF_PERICENTER": 309.0517, "MEAN_ANOMALY": 79.6989, "EPHEMERIS_TYPE": 0, "CLASSIFICATION_TYPE": "U", "NORAD_CAT_ID": 31989, "ELEMENT_SET_NO": 999, "REV_AT_EPOCH": 93667, "BSTAR": 0.00082265883, "MEAN_MOTION_DOT": 1.095e-05, "MEAN_MOTION_DDOT": 0}, "tle": {"line1": "1 31989U 99025CPS 25343.11666237  .00001095  00000+0  82266-3 0  9995", "line2": "2 31989  99.2138  44.2812 0115294 309.0517  79.6989 13.93579054936677"}}, "geometry": {"type": "Point", "coordinates": [35.53596616461165, 45.79595579431662]}}, {"type": "Feature", "properties": {"norad_id": 31990, "name": "FENGYUN 1C DEB", "group": "fengyun-1c-debris", "lat": 38.5561061255959, "lon": -165.95349562306302, "alt_km": 918.006775770974, "timestamp": "2025-12-09T23:33:24.140235+00:00", "meta": {"OBJECT_NAME": "FENGYUN 1C DEB", "OBJECT_ID": "1999-025CPT", "EPOCH": "2025-12-08T00:59:47.086944", "MEAN_MOTION": 13.57198969, "ECCENTRICITY": 0.02600288, "INCLINATION": 99.1609, "RA_OF_ASC_NODE": 4.8485, "ARG_OF_PERICENTER": 196.5777, "MEAN_ANOMALY": 192.6963, "EPHEMERIS_TYPE": 0, "CLASSIFICATION_TYPE": "U", "NORAD_CAT_ID": 31990, "ELEMENT_SET_NO": 999, "REV_AT_EPOCH": 62708, "BSTAR": 0.00038306466, "MEAN_MOTION_DOT": 3e-06, "MEAN_MOTION_DDOT": 0}, "tle": {"line1": "1 31990U 99025CPT 25342.04151721  .00000300  00000+0  38306-3 0  9999", "line2": "2 31990  99.1609   4.8485 0260028 196.5777 192.6963 13.57198969627084"}}, "geometry": {"type": "Point", "coordinates": [-165.95349562306302, 38.5561061255959]}}, {"type": "Feature", "properties": {"norad_id": 31991, "name": "FENGYUN 1C DEB", "group": "fengyun-1c-debris", "lat": 53.75796829714952, "lon": 7.399758574977007, "alt_km": 944.8646047134989, "timestamp": "2025-12-09T23:33:24.140245+00:00", "meta": {"OBJECT_NAME": "FENGYUN 1C DEB", "OBJECT_ID": "1999-025CPU", "EPOCH": "2025-12-08T18:44:49.474752", "MEAN_MOTION": 13.61276722, "ECCENTRICITY": 0.02446016, "INCLINATION": 100.4869, "RA_OF_ASC_NODE": 171.4757, "ARG_OF_PERICENTER": 63.0672, "MEAN_ANOMALY": 299.523, "EPHEMERIS_TYPE": 0, "CLASSIFICATION_TYPE": "U", "NORAD_CAT_ID": 31991, "ELEMENT_SET_NO": 999, "REV_AT_EPOCH": 62033, "BSTAR": 0.00023536636, "MEAN_MOTION_DOT": 1.69e-06, "MEAN_MOTION_DDOT": 0}, "tle": {"line1": "1 31991U 99025CPU 25342.78112818  .00000169  00000+0  23537-3 0  9998", "line2": "2 31991 100.4869 171.4757 0244601  63.0672 299.5230 13.61276722620337"}}, "geometry": {"type": "Point", "coordinates": [7.399758574977007, 53.75796829714952]}}, {"type": "Feature", "properties": {"norad_id": 31992, "name": "FENGYUN 1C DEB", "group": "fengyun-1c-debris", "lat": 25.039784928757754, "lon": -60.14564121933886, "alt_km": 769.358516870142, "timestamp": "2025-12-09T23:33:24.140255+00:00", "meta": {"OBJECT_NAME": "FENGYUN 1C DEB", "OBJECT_ID": "1999-025CPV", "EPOCH": "2025-11-28T04:18:18.013824", "MEAN_MOTION": 13.22945767, "ECCENTRICITY": 0.05423475, "INCLINATION": 99.1642, "RA_OF_ASC_NODE": 293.7613, "ARG_OF_PERICENTER": 64.8199, "MEAN_ANOMALY": 300.815, "EPHEMERIS_TYPE": 0, "CLASSIFICATION_TYPE": "U", "NORAD_CAT_ID": 31992, "ELEMENT_SET_NO": 999, "REV_AT_EPOCH": 53682, "BSTAR": 0.0012217074, "MEAN_MOTION_DOT": 1.091e-05, "MEAN_MOTION_DDOT": 0}, "tle": {"line1": "1 31992U 99025CPV 25332.17937516  .00001091  00000+0  12217-2 0  9998", "line2": "2 31992  99.1642 293.7613 0542347  64.8199 300.8150 13.22945767536827"}}, "geometry": {"type": "Point", "coordinates": [-60.14564121933886, 25.039784928757754]}}, {"type": "Feature", "properties": {"norad_id": 31993, "name": "FENGYUN 1C DEB", "group": "fengyun-1c-debris", "lat": 13.882990741436233, "lon": -45.77159246412919, "alt_km": 1344.0129345234445, "timestamp": "2025-12-09T23:33:24.140266+00:00", "meta": {"OBJECT_NAME": "FENGYUN 1C DEB", "OBJECT_ID": "1999-025CPW", "EPOCH": "2025-12-09T03:34:59.373984", "MEAN_MOTION": 13.27441178, "ECCENTRICITY": 0.04214422, "INCLINATION": 99.2418, "RA_OF_ASC_NODE": 315.7897, "ARG_OF_PERICENTER": 144.1476, "MEAN_ANOMALY": 218.8727, "EPHEMERIS_TYPE": 0, "CLASSIFICATION_TYPE": "U", "NORAD_CAT_ID": 31993, "ELEMENT_SET_NO": 999, "REV_AT_EPOCH": 88895, "BSTAR": 0.0017263058, "MEAN_MOTION_DOT": 1.223e-05, "MEAN_MOTION_DDOT": 0}, "tle": {"line1": "1 31993U 99025CPW 25343.14929831  .00001223  00000+0  17263-2 0  9992", "line2": "2 31993  99.2418 315.7897 0421442 144.1476 218.8727 13.27441178888955"}}, "geometry": {"type": "Point", "coordinates": [-45.77159246412919, 13.882990741436233]}}, {"type": "Feature", "properties": {"norad_id": 31994, "name": "FENGYUN 1C DEB", "group": "fengyun-1c-debris", "lat": -77.14850148166852, "lon": 117.17032857593219, "alt_km": 947.9447630731411, "timestamp": "2025-12-09T23:33:24.140276+00:00", "meta": {"OBJECT_NAME": "FENGYUN 1C DEB", "OBJECT_ID": "1999-025CPX", "EPOCH": "2025-12-08T18:47:52.552032", "MEAN_MOTION": 13.95756128, "ECCENTRICITY": 0.0162104, "INCLINATION": 98.5389, "RA_OF_ASC_NODE": 337.2475, "ARG_OF_PERICENTER": 157.0143, "MEAN_ANOMALY": 203.8382, "EPHEMERIS_TYPE": 0, "CLASSIFICATION_TYPE": "U", "NORAD_CAT_ID": 31994, "ELEMENT_SET_NO": 999, "REV_AT_EPOCH": 56741, "BSTAR": 0.00037585411, "MEAN_MOTION_DOT": 5.34e-06, "MEAN_MOTION_DDOT": 0}, "tle": {"line1": "1 31994U 99025CPX 25342.78324713  .00000534  00000+0  37585-3 0  9994", "line2": "2 31994  98.5389 337.2475 0162104 157.0143 203.8382 13.95756128567412"}}, "geometry": {"type": "Point", "coordinates": [117.17032857593219, -77.14850148166852]}}, {"type": "Feature", "properties": {"norad_id": 31997, "name": "FENGYUN 1C DEB", "group": "fengyun-1c-debris", "lat": -29.91181867444691, "lon": -160.62595788449232, "alt_km": 958.1610131873085, "timestamp": "2025-12-09T23:33:24.140286+00:00", "meta": {"OBJECT_NAME": "FENGYUN 1C DEB", "OBJECT_ID": "1999-025CQA", "EPOCH": "2025-12-07T08:43:49.741824", "MEAN_MOTION": 13.60640375, "ECCENTRICITY": 0.02894668, "INCLINATION": 102.5101, "RA_OF_ASC_NODE": 23.3705, "ARG_OF_PERICENTER": 285.938, "MEAN_ANOMALY": 71.0036, "EPHEMERIS_TYPE": 0, "CLASSIFICATION_TYPE": "U", "NORAD_CAT_ID": 31997, "ELEMENT_SET_NO": 999, "REV_AT_EPOCH": 61610, "BSTAR": 0.0033977842, "MEAN_MOTION_DOT": 3.315e-05, "MEAN_MOTION_DDOT": 0}, "tle": {"line1": "1 31997U 99025CQA 25341.36377016  .00003315  00000+0  33978-2 0  9995", "line2": "2 31997 102.5101  23.3705 0289466 285.9380  71.0036 13.60640375616107"}}, "geometry": {"type": "Point", "coordinates": [-160.62595788449232, -29.91181867444691]}}, {"type": "Feature", "properties": {"norad_id": 32086, "name": "FENGYUN 1C DEB", "group": "fengyun-1c-debris", "lat": 17.640972953485743, "lon": 36.01874967408076, "alt_km": 1125.7500455267182, "timestamp": "2025-12-09T23:33:24.140296+00:00", "meta": {"OBJECT_NAME": "FENGYUN 1C DEB", "OBJECT_ID": "1999-025CQC", "EPOCH": "2025-12-08T22:54:23.642784", "MEAN_MOTION": 13.68864745, "ECCENTRICITY": 0.0300639, "INCLINATION": 99.2693, "RA_OF_ASC_NODE": 38.0068, "ARG_OF_PERICENTER": 145.3801, "MEAN_ANOMALY": 216.7328, "EPHEMERIS_TYPE": 0, "CLASSIFICATION_TYPE": "U", "NORAD_CAT_ID": 32086, "ELEMENT_SET_NO": 999, "REV_AT_EPOCH": 61729, "BSTAR": 0.0024856, "MEAN_MOTION_DOT": 2.899e-05, "MEAN_MOTION_DDOT": 0}, "tle": {"line1": "1 32086U 99025CQC 25342.95444031  .00002899  00000+0  24856-2 0  9994", "line2": "2 32086  99.2693  38.0068 0300639 145.3801 216.7328 13.68864745617293"}}, "geometry": {"type": "Point", "coordinates": [36.01874967408076, 17.640972953485743]}}, {"type": "Feature", "properties": {"norad_id": 32088, "name": "FENGYUN 1C DEB", "group": "fengyun-1c-debris", "lat": -33.02229687143268, "lon": 21.213469736008193, "alt_km": 1465.1047019803218, "timestamp": "2025-12-09T23:33:24.140308+00:00", "meta": {"OBJECT_NAME": "FENGYUN 1C DEB", "OBJECT_ID": "1999-025CQE", "EPOCH": "2025-12-08T10:13:53.336064", "MEAN_MOTION": 13.2515533, "ECCENTRICITY": 0.04613967, "INCLINATION": 102.4007, "RA_OF_ASC_NODE": 207.5793, "ARG_OF_PERICENTER": 6.2294, "MEAN_ANOMALY": 354.4296, "EPHEMERIS_TYPE": 0, "CLASSIFICATION_TYPE": "U", "NORAD_CAT_ID": 32088, "ELEMENT_SET_NO": 999, "REV_AT_EPOCH": 59787, "BSTAR": 0.0050481192, "MEAN_MOTION_DOT": 3.828e-05, "MEAN_MOTION_DDOT": 0}, "tle": {"line1": "1 32088U 99025CQE 25342.42631176  .00003828  00000+0  50481-2 0  9992", "line2": "2 32088 102.4007 207.5793 0461396   6.2294 354.4296 13.25155330597879"}}, "geometry": {"type": "Point", "coordinates": [21.213469736008193, -33.02229687143268]}}, {"type": "Feature", "properties": {"norad_id": 32089, "name": "FENGYUN 1C DEB", "group": "fengyun-1c-debris", "lat": 27.35010630600575, "lon": 174.1616562898578, "alt_km": 768.2392220816291, "timestamp": "2025-12-09T23:33:24.140319+00:00", "meta": {"OBJECT_NAME": "FENGYUN 1C DEB", "OBJECT_ID": "1999-025CQF", "EPOCH": "2025-12-07T06:18:49.554720", "MEAN_MOTION": 14.14051186, "ECCENTRICITY": 0.01122042, "INCLINATION": 98.6543, "RA_OF_ASC_NODE": 347.0104, "ARG_OF_PERICENTER": 139.5963, "MEAN_ANOMALY": 221.3612, "EPHEMERIS_TYPE": 0, "CLASSIFICATION_TYPE": "U", "NORAD_CAT_ID": 32089, "ELEMENT_SET_NO": 999, "REV_AT_EPOCH": 63138, "BSTAR": 0.00086316915, "MEAN_MOTION_DOT": 1.702e-05, "MEAN_MOTION_DDOT": 0}, "tle": {"line1": "1 32089U 99025CQF 25341.26307355  .00001702  00000+0  86317-3 0  9990", "line2": "2 32089  98.6543 347.0104 0112204 139.5963 221.3612 14.14051186631383"}}, "geometry": {"type": "Point", "coordinates": [174.1616562898578, 27.35010630600575]}}]}